NORAD_CAT_ID,OBJECT_NAME,OBJECT_TYPE,EPOCH,MEAN_MOTION,ECCENTRICITY,INCLINATION,RA_OF_ASC_NODE,ARG_OF_PERICENTER,MEAN_ANOMALY,BSTAR,MEAN_MOTION_DOT,MEAN_MOTION_DDOT,TLE_LINE0,TLE_LINE1,TLE_LINE2,SEMIMAJOR_AXIS,PERIOD,APOGEE,PERIGEE,DECAYED
50837.0,STARLINK-3318,PAYLOAD,2022-05-29 18:03:57,15.08836965,0.0002071,53.2177,243.8937,37.3615,322.7521,-6.4644e-05,-1.317e-05,0.0,0 STARLINK-3318,1 50837U 22001AL  22149.75274315 -.00001317  00000-0 -64644-4 0  9992,2 50837  53.2177 243.8937 0002071  37.3615 322.7521 15.08836965 22086,6917.89,95.438,541.187,538.322,0.0
50837.0,STARLINK-3318,PAYLOAD,2022-05-30 06:00:00,15.08789749,0.0001946,53.2183,241.661,38.1962,144.4391,0.0032366,0.00051529,0.0,0 STARLINK-3318,1 50837U 22001AL  22150.25001157  .00051529  00000-0  32366-2 0  9993,2 50837  53.2183 241.6610 0001946  38.1962 144.4391 15.08789749 23353,6918.034000000002,95.441,541.245,538.553,0.0
50837.0,STARLINK-3318,PAYLOAD,2022-05-30 14:00:01,15.08825911,0.0002143,53.2179,240.1665,33.4352,160.7551,0.0013814,0.00021757,0.0,0 STARLINK-3318,1 50837U 22001AL  22150.58334491  .00021757  00000-0  13814-2 0  9996,2 50837  53.2179 240.1665 0002143  33.4352 160.7551 15.08825911  1305,6917.9230000000025,95.438,541.271,538.306,0.0
50837.0,STARLINK-3318,PAYLOAD,2022-05-30 22:00:00,15.08860331,0.0002066,53.2175,238.6692,34.3356,171.4397,-0.0040969,-0.00064941,0.0,0 STARLINK-3318,1 50837U 22001AL  22150.91667824 -.00064941  00000-0 -40969-2 0  9997,2 50837  53.2175 238.6692 0002066  34.3356 171.4397 15.08860331 23453,6917.818,95.436,541.112,538.254,0.0
50837.0,STARLINK-3318,PAYLOAD,2022-05-31 06:00:02,15.08821118,0.0001981,53.2176,237.1725,40.2722,177.1459,0.0010113,0.00015835,0.0,0 STARLINK-3318,1 50837U 22001AL  22151.25002315  .00015835  00000-0  10113-2 0  9997,2 50837  53.2176 237.1725 0001981  40.2722 177.1459 15.08821118  1305,6917.938,95.439,541.174,538.433,0.0
50837.0,STARLINK-3318,PAYLOAD,2022-05-31 14:00:01,15.08815957,0.0002215,53.2172,235.6781,35.9716,192.9663,0.0012829,0.00020175,0.0,0 STARLINK-3318,1 50837U 22001AL  22151.58334491  .00020175  00000-0  12829-2 0  9995,2 50837  53.2172 235.6781 0002215  35.9716 192.9663 15.08815957 23558,6917.954000000002,95.439,541.351,538.2869999999998,0.0
50837.0,STARLINK-3318,PAYLOAD,2022-05-31 22:00:00,15.08847154,0.000209,53.2168,234.1806,36.6774,203.8348,-0.001639,-0.00026284,0.0,0 STARLINK-3318,1 50837U 22001AL  22151.91667824 -.00026284  00000-0 -16390-2 0  9997,2 50837  53.2168 234.1806 0002090  36.6774 203.8348 15.08847154  1303,6917.859,95.437,541.169,538.278,0.0
50837.0,STARLINK-3318,PAYLOAD,2022-06-01 20:00:01,15.08864037,0.00022,53.216,230.0663,36.354,146.0443,-0.0014501,-0.00023308,0.0,0 STARLINK-3318,1 50837U 22001AL  22152.83334491 -.00023308  00000-0 -14501-2 0  9996,2 50837  53.2160 230.0663 0002200  36.3540 146.0443 15.08864037 23747,6917.807,95.436,541.194,538.15,0.0
50837.0,STARLINK-3318,PAYLOAD,2022-06-03 04:34:48,15.08842227,0.0002264,53.2195,223.9711,37.6555,322.4596,-2.8845e-05,-7.47e-06,0.0,0 STARLINK-3318,1 50837U 22001AL  22154.19084208 -.00000747  00000-0 -28845-4 0  9995,2 50837  53.2195 223.9711 0002264  37.6555 322.4596 15.08842227 23959,6917.874,95.437,541.305,538.172,0.0
50837.0,STARLINK-3318,PAYLOAD,2022-06-03 10:56:21,15.08842781,0.0002316,53.2184,222.7815,40.4905,319.6259,-3.534e-06,-3.45e-06,0.0,0 STARLINK-3318,1 50837U 22001AL  22154.45579987 -.00000345  00000-0 -35340-5 0  9990,2 50837  53.2184 222.7815 0002316  40.4905 319.6259 15.08842781 22798,6917.871999999999,95.437,541.339,538.135,0.0
50837.0,STARLINK-3318,PAYLOAD,2022-06-04 04:25:34,15.08853857,0.0002545,53.219,219.5114,41.7954,318.3232,-1.7447e-05,-5.66e-06,0.0,0 STARLINK-3318,1 50837U 22001AL  22155.18443086 -.00000566  00000-0 -17447-4 0  9993,2 50837  53.2190 219.5114 0002545  41.7954 318.3232 15.08853857 24103,6917.8380000000025,95.437,541.464,537.942,0.0
50837.0,STARLINK-3318,PAYLOAD,2022-06-04 10:47:07,15.088528,0.0002281,53.2182,218.321,40.1411,319.9749,1.1761e-05,-1.01e-06,0.0,0 STARLINK-3318,1 50837U 22001AL  22155.44938720 -.00000101  00000-0  11761-4 0  9993,2 50837  53.2182 218.3210 0002281  40.1411 319.9749 15.08852800 22943,6917.840999999999,95.437,541.284,538.128,0.0
50837.0,STARLINK-3318,PAYLOAD,2022-06-05 22:00:00,15.08838786,0.000222,53.2169,211.7347,36.6777,17.8348,0.00032622,4.907e-05,0.0,0 STARLINK-3318,1 50837U 22001AL  22156.91667824  .00004907  00000-0  32622-3 0  9995,2 50837  53.2169 211.7347 0002220  36.6777  17.8348 15.08838786 24368,6917.884,95.438,541.285,538.2130000000002,0.0
50837.0,STARLINK-3318,PAYLOAD,2022-06-06 14:00:01,15.08836659,0.000239,53.2168,208.7437,33.9052,43.8119,0.00090335,0.00014117,0.0,0 STARLINK-3318,1 50837U 22001AL  22157.58334491  .00014117  00000-0  90335-3 0  9999,2 50837  53.2168 208.7437 0002390  33.9052  43.8119 15.08836659  1308,6917.891,95.438,541.409,538.102,0.0
50837.0,STARLINK-3318,PAYLOAD,2022-06-06 22:00:00,15.08822173,0.0002135,53.2169,207.2456,35.5025,53.8224,0.00030109,4.505e-05,0.0,0 STARLINK-3318,1 50837U 22001AL  22157.91667824  .00004505  00000-0  30109-3 0  9998,2 50837  53.2169 207.2456 0002135  35.5025  53.8224 15.08822173  1303,6917.935,95.439,541.2769999999998,538.323,0.0
50837.0,STARLINK-3318,PAYLOAD,2022-06-07 02:22:32,15.08841275,0.00023,53.2183,206.4281,39.6511,320.4649,-1.2446e-05,-4.86e-06,0.0,0 STARLINK-3318,1 50837U 22001AL  22158.09898666 -.00000486  00000-0 -12446-4 0  9999,2 50837  53.2183 206.4281 0002300  39.6511 320.4649 15.08841275 24544,6917.876,95.437,541.3330000000002,538.15,0.0
50837.0,STARLINK-3318,PAYLOAD,2022-06-07 10:19:28,15.08831197,0.0002333,53.2184,204.9407,40.2273,319.8892,-2.9158e-05,-7.52e-06,0.0,0 STARLINK-3318,1 50837U 22001AL  22158.43019460 -.00000752  00000-0 -29158-4 0  9998,2 50837  53.2184 204.9407 0002333  40.2273 319.8892 15.08831197 24596,6917.906999999997,95.438,541.386,538.158,0.0
50837.0,STARLINK-3318,PAYLOAD,2022-06-08 11:45:38,15.08836779,0.0002303,53.2191,200.183,45.5206,314.5974,-3.8462e-05,-9e-06,0.0,0 STARLINK-3318,1 50837U 22001AL  22159.49003465 -.00000900  00000-0 -38462-4 0  9996,2 50837  53.2191 200.1830 0002303  45.5206 314.5974 15.08836779 24755,6917.89,95.438,541.3480000000002,538.1619999999998,0.0
50837.0,STARLINK-3318,PAYLOAD,2022-06-08 19:42:34,15.08840813,0.0002463,53.2191,198.6963,41.5547,318.5632,-1.3116e-05,-4.97e-06,0.0,0 STARLINK-3318,1 50837U 22001AL  22159.82123179 -.00000497  00000-0 -13116-4 0  9998,2 50837  53.2191 198.6963 0002463  41.5547 318.5632 15.08840813 23606,6917.878000000002,95.438,541.447,538.039,0.0
50837.0,STARLINK-3318,PAYLOAD,2022-06-09 06:50:16,15.08837558,0.0002349,53.2178,196.614,38.7237,321.3923,6.8844e-05,8.07e-06,0.0,0 STARLINK-3318,1 50837U 22001AL  22160.28491047  .00000807  00000-0  68844-4 0  9993,2 50837  53.2178 196.6140 0002349  38.7237 321.3923 15.08837558 23677,6917.888000000001,95.438,541.378,538.128,0.0
50837.0,STARLINK-3318,PAYLOAD,2022-06-09 19:33:21,15.08840246,0.0002387,53.2178,194.2353,39.7746,320.3421,7.036e-05,8.32e-06,0.0,0 STARLINK-3318,1 50837U 22001AL  22160.81482899  .00000832  00000-0  70360-4 0  9991,2 50837  53.2178 194.2353 0002387  39.7746 320.3421 15.08840246 24957,6917.88,95.438,541.396,538.0930000000002,0.0
50837.0,STARLINK-3318,PAYLOAD,2022-06-10 11:27:13,15.08830862,0.0002326,53.2178,191.2621,39.1381,320.9779,-5.0487e-05,-1.092e-05,0.0,0 STARLINK-3318,1 50837U 22001AL  22161.47723978 -.00001092  00000-0 -50487-4 0  9999,2 50837  53.2178 191.2621 0002326  39.1381 320.9779 15.08830862 25051,6917.908,95.438,541.382,538.164,0.0
50837.0,STARLINK-3318,PAYLOAD,2022-06-10 19:24:09,15.08832147,0.0002381,53.2176,189.7755,38.9702,321.1461,-5.0855e-05,-1.097e-05,0.0,0 STARLINK-3318,1 50837U 22001AL  22161.80844035 -.00001097  00000-0 -50855-4 0  9998,2 50837  53.2176 189.7755 0002381  38.9702 321.1461 15.08832147 23905,6917.904,95.438,541.4169999999998,538.122,0.0
50837.0,STARLINK-3318,PAYLOAD,2022-06-11 19:14:56,15.08832103,0.0002411,53.2177,185.3153,38.9332,321.1833,-5.4992e-06,-3.76e-06,0.0,0 STARLINK-3318,1 50837U 22001AL  22162.80204133 -.00000376  00000-0 -54992-5 0  9994,2 50837  53.2177 185.3153 0002411  38.9332 321.1833 15.08832103 25258,6917.905,95.438,541.437,538.102,0.0
50837.0,STARLINK-3318,PAYLOAD,2022-06-12 07:58:01,15.08833636,0.0002446,53.2175,182.9364,39.4395,320.6775,1.301e-05,-8.1e-07,0.0,0 STARLINK-3318,1 50837U 22001AL  22163.33196199 -.00000081  00000-0  13010-4 0  9992,2 50837  53.2175 182.9364 0002446  39.4395 320.6775 15.08833636 24133,6917.9,95.438,541.457,538.073,0.0
50837.0,STARLINK-3318,PAYLOAD,2022-06-13 04:38:02,15.08835088,0.0002497,53.2175,179.0707,41.506,318.6121,5.4078e-05,5.72e-06,0.0,0 STARLINK-3318,1 50837U 22001AL  22164.19308315  .00000572  00000-0  54078-4 0  9995,2 50837  53.2175 179.0707 0002497  41.5060 318.6121 15.08835088 25462,6917.895,95.438,541.488,538.033,0.0
50837.0,STARLINK-3318,PAYLOAD,2022-06-13 07:48:48,15.08836928,0.0002516,53.2174,178.4761,41.3789,318.7393,6.0209e-05,6.7e-06,0.0,0 STARLINK-3318,1 50837U 22001AL  22164.32556208  .00000670  00000-0  60209-4 0  9998,2 50837  53.2174 178.4761 0002516  41.3789 318.7393 15.08836928 24287,6917.89,95.438,541.495,538.014,0.0
50837.0,STARLINK-3318,PAYLOAD,2022-06-13 17:21:07,15.08838679,0.0002546,53.2174,176.692,41.9511,318.1676,6.0906e-05,6.81e-06,0.0,0 STARLINK-3318,1 50837U 22001AL  22164.72300133  .00000681  00000-0  60906-4 0  9992,2 50837  53.2174 176.6920 0002546  41.9511 318.1676 15.08838679 24346,6917.884,95.438,541.511,537.988,0.0
50837.0,STARLINK-3318,PAYLOAD,2022-06-14 04:28:49,15.0884236,0.0002554,53.2178,174.6107,42.3773,317.7416,6.7748e-05,7.9e-06,0.0,0 STARLINK-3318,1 50837U 22001AL  22165.18667873  .00000790  00000-0  67748-4 0  9992,2 50837  53.2178 174.6107 0002554  42.3773 317.7416 15.08842360 25619,6917.873000000001,95.437,541.505,537.971,0.0
